{"_default": { "784": {"norad_id": "59071", "name": "OBJECT U", "tle1": "1 59071U 24039U   26162.29627032  .00002133  00000-0  16723-3 0  9999", "tle2": "2 59071  95.3918 231.2590 0143498 348.5582  11.2392 14.93731699123865", "object_type": "PAYLOAD", "criticality_score": 7.0, "last_updated": "2026-06-11T13:46:34.097683+00:00", "maneuver_count": 0}, "785": {"norad_id": "59068", "name": "OBJECT T", "tle1": "1 59068U 24039T   26162.25170859  .00002689  00000-0  21022-3 0  9995", "tle2": "2 59068  95.3914 231.1815 0143572 348.8342  10.9707 14.93696253123857", "object_type": "PAYLOAD", "criticality_score": 7.0, "last_updated": "2026-06-11T13:46:34.097683+00:00", "maneuver_count": 0}, "786": {"norad_id": "59067", "name": "OBJECT S", "tle1": "1 59067U 24039S   26162.27980813  .00002614  00000-0  20620-3 0  9996", "tle2": "2 59067  95.3915 230.9318 0144559 350.1721   9.6682 14.93280060123835", "object_type": "PAYLOAD", "criticality_score": 7.0, "last_updated": "2026-06-11T13:46:34.097683+00:00", "maneuver_count": 0}, "787": {"norad_id": "59066", "name": "OBJECT R", "tle1": "1 59066U 24039R   26162.27924051  .00002766  00000-0  21702-3 0  9997", "tle2": "2 59066  95.3914 231.0325 0144198 349.5982  10.2267 14.93483359123847", "object_type": "PAYLOAD", "criticality_score": 7.0, "last_updated": "2026-06-11T13:46:34.097683+00:00", "maneuver_count": 0}, "788": {"norad_id": "58821", "name": "OBJECT B", "tle1": "1 58821U 24016B   26162.26600392  .00100603  00000-0  76148-3 0  9991", "tle2": "2 58821  97.4465 258.8527 0002095 116.1201 244.0277 15.72094304133240", "object_type": "PAYLOAD", "criticality_score": 7.0, "last_updated": "2026-06-11T13:46:34.097683+00:00", "maneuver_count": 0}, "789": {"norad_id": "44529", "name": "BNU-1", "tle1": "1 44529U 19059B   26162.28058610  .00000415  00000-0  12304-3 0  9998", "tle2": "2 44529  98.6052 291.2568 0013936  36.0053 324.2076 14.48384495356130", "object_type": "PAYLOAD", "criticality_score": 9.0, "last_updated": "2026-06-11T13:46:34.097683+00:00", "maneuver_count": 0}, "790": {"norad_id": "43641", "name": "SAOCOM 1-A", "tle1": "1 43641U 18076A   26162.39760828  .00000281  00000-0  41807-4 0  9995", "tle2": "2 43641  97.8883 349.2303 0001552  88.5446 271.5945 14.82143975415248", "object_type": "PAYLOAD", "criticality_score": 9.0, "last_updated": "2026-06-11T13:46:34.097683+00:00", "maneuver_count": 0}, "791": {"norad_id": "40015", "name": "HODOYOSHI 3", "tle1": "1 40015U 14033F   26162.18962674  .00000877  00000-0  10697-3 0  9999", "tle2": "2 40015  97.6412 325.4718 0033237  17.0044 343.2277 14.85376209646734", "object_type": "PAYLOAD", "criticality_score": 9.0, "last_updated": "2026-06-11T13:46:34.097683+00:00", "maneuver_count": 0}, "792": {"norad_id": "59101", "name": "METHANESAT", "tle1": "1 59101U 24043D   26162.24944955  .00002673  00000-0  23068-3 0  9998", "tle2": "2 59101  97.8445 293.2631 0011308  39.5920 320.6126 14.98099942123766", "object_type": "PAYLOAD", "criticality_score": 7.0, "last_updated": "2026-06-11T13:46:34.097683+00:00", "maneuver_count": 0}, "793": {"norad_id": "59106", "name": "RROCI-2", "tle1": "1 59106U 24043J   26162.11557248  .00002797  00000-0  23021-3 0  9990", "tle2": "2 59106  97.8452 294.8210 0011073  46.1781 314.0355 14.99898324123850", "object_type": "PAYLOAD", "criticality_score": 7.0, "last_updated": "2026-06-11T13:46:34.097683+00:00", "maneuver_count": 0}, "794": {"norad_id": "59108", "name": "BRO-12", "tle1": "1 59108U 24043L   26162.27268203  .00000432  00000-0  42897-4 0  9996", "tle2": "2 59108  97.8477 293.4352 0008798  22.0368 338.1230 14.96826818123759", "object_type": "PAYLOAD", "criticality_score": 7.0, "last_updated": "2026-06-11T13:46:34.097683+00:00", "maneuver_count": 0}, "795": {"norad_id": "59107", "name": "BRO-13", "tle1": "1 59107U 24043K   26162.27560444  .00000507  00000-0  49786-4 0  9994", "tle2": "2 59107  97.8489 293.2760 0009498  26.0311 334.1386 14.96581612123738", "object_type": "PAYLOAD", "criticality_score": 7.0, "last_updated": "2026-06-11T13:46:34.097683+00:00", "maneuver_count": 0}, "796": {"norad_id": "59132", "name": "LIZZIESAT", "tle1": "1 59132U 24043AL  26161.94033920  .00003516  00000-0  13376-3 0  9997", "tle2": "2 59132  97.5625 297.6640 0009237 266.5929  93.4253 15.27420782125989", "object_type": "PAYLOAD", "criticality_score": 7.0, "last_updated": "2026-06-11T13:46:34.097683+00:00", "maneuver_count": 0}, "797": {"norad_id": "98922", "name": "JACKAL-01", "tle1": "1 98922C 24043AJ  24064.97064002 -.00029666  00000+0 -15235-2 0    08", "tle2": "2 98922  97.4583 190.2675 0011705 291.9497 116.7363 15.16533473    19", "object_type": "PAYLOAD", "criticality_score": 7.0, "last_updated": "2026-06-11T13:46:34.097683+00:00", "maneuver_count": 0}, "798": {"norad_id": "98924", "name": "OPTIMUS-2", "tle1": "1 98924C 24043AG  24064.96912382 -.00022852  00000+0 -11726-2 0    03", "tle2": "2 98924  97.4607 190.2683 0012310 292.6704 107.7367 15.16553289    10", "object_type": "PAYLOAD", "criticality_score": 7.0, "last_updated": "2026-06-11T13:46:34.097683+00:00", "maneuver_count": 0}, "799": {"norad_id": "98923", "name": "JACKAL-02", "tle1": "1 98923C 24043AH  24064.96982752 -.00028660  00000+0 -14603-2 0    00", "tle2": "2 98923  97.4581 190.2667 0012208 286.9284 117.3245 15.16802525    19", "object_type": "PAYLOAD", "criticality_score": 7.0, "last_updated": "2026-06-11T13:46:34.097683+00:00", "maneuver_count": 0}, "800": {"norad_id": "59129", "name": "APEX ARIES 1", "tle1": "1 59129U 24043AH  26162.16218898  .00021835  00000-0  32073-3 0  9996", "tle2": "2 59129  97.5458 312.0517 0005173 213.6438 146.4489 15.55502910126983", "object_type": "PAYLOAD", "criticality_score": 7.0, "last_updated": "2026-06-11T13:46:34.097683+00:00", "maneuver_count": 0}, "801": {"norad_id": "59126", "name": "YAM-6", "tle1": "1 59126U 24043AE  26162.19335949  .00007483  00000-0  20858-3 0  9994", "tle2": "2 59126  97.5549 303.1557 0007086 245.2744 114.7763 15.37059833126391", "object_type": "PAYLOAD", "criticality_score": 7.0, "last_updated": "2026-06-11T13:46:34.097683+00:00", "maneuver_count": 0}, "802": {"norad_id": "98928", "name": "PYXIS", "tle1": "1 98928C 24043Z   24064.96362498 -.00019857  00000+0 -10212-2 0    04", "tle2": "2 98928  97.4616 190.2622 0012654 293.5426  76.8606 15.16470561    12", "object_type": "PAYLOAD", "criticality_score": 7.0, "last_updated": "2026-06-11T13:46:34.097683+00:00", "maneuver_count": 0}, "803": {"norad_id": "98927", "name": "ROSE", "tle1": "1 98927C 24043AB  24064.96436803 -.00012115  00000+0 -62395-3 0    05", "tle2": "2 98927  97.4583 190.2622 0012061 295.1627  79.3014 15.16422602    11", "object_type": "PAYLOAD", "criticality_score": 7.0, "last_updated": "2026-06-11T13:46:34.097683+00:00", "maneuver_count": 0}, "804": {"norad_id": "59140", "name": "SENTRY", "tle1": "1 59140U 24043AU  26083.41189137  .04762685  25479-5  11746-2 0  9996", "tle2": "2 59140  97.5148 239.7250 0008888 280.4836  79.5456 16.29150633115421", "object_type": "PAYLOAD", "criticality_score": 7.0, "last_updated": "2026-06-11T13:46:34.097683+00:00", "maneuver_count": 0}, "805": {"norad_id": "59117", "name": "CONTECSAT-1", "tle1": "1 59117U 24043V   26162.22926392  .00007776  00000-0  22030-3 0  9995", "tle2": "2 59117  97.5630 303.0798 0008938 253.3835 106.6427 15.36523162126337", "object_type": "PAYLOAD", "criticality_score": 7.0, "last_updated": "2026-06-11T13:46:34.097683+00:00", "maneuver_count": 0}, "806": {"norad_id": "59112", "name": "SONATE-2", "tle1": "1 59112U 24043Q   26161.91025014  .00035885  00000-0  47424-3 0  9992", "tle2": "2 59112  97.5521 311.9242 0006761 216.8986 143.1805 15.58250405126917", "object_type": "PAYLOAD", "criticality_score": 7.0, "last_updated": "2026-06-11T13:46:34.097683+00:00", "maneuver_count": 0}, "807": {"norad_id": "59105", "name": "PE2_FLT1 (TYVAK-0261)", "tle1": "1 59105U 24043H   26162.23946636  .00002584  00000-0  22862-3 0  9991", "tle2": "2 59105  97.8368 292.8655 0007305  68.2441 291.9558 14.97179907123762", "object_type": "PAYLOAD", "criticality_score": 7.0, "last_updated": "2026-06-11T13:46:34.097683+00:00", "maneuver_count": 0}, "808": {"norad_id": "59104", "name": "PE2_FLT2 (TYVAK-0262)", "tle1": "1 59104U 24043G   26162.10567302  .00002690  00000-0  23769-3 0  9990", "tle2": "2 59104  97.8380 292.7650 0007447  72.0236 288.1797 14.97187541123745", "object_type": "PAYLOAD", "criticality_score": 7.0, "last_updated": "2026-06-11T13:46:34.097683+00:00", "maneuver_count": 0}, "809": {"norad_id": "59099", "name": "MUSAT2", "tle1": "1 59099U 24043B   26161.95472832  .00005301  00000-0  34380-3 0  9991", "tle2": "2 59099  97.8586 300.4604 0006876   5.8342 354.2965 15.08522924124158", "object_type": "PAYLOAD", "criticality_score": 7.0, "last_updated": "2026-06-11T13:46:34.097683+00:00", "maneuver_count": 0}, "810": {"norad_id": "98913", "name": "VEERY-0E", "tle1": "1 98913C 24043E   24064.95738192  .00070905  00000+0  35639-2 0    04", "tle2": "2 98913  97.4682 190.2519 0011942 275.7224  60.6004 15.17249766    16", "object_type": "PAYLOAD", "criticality_score": 7.0, "last_updated": "2026-06-11T13:46:34.097683+00:00", "maneuver_count": 0}, "811": {"norad_id": "99047", "name": "OBJECT E", "tle1": "1 56747U 23072E   26162.31506913  .00023242  00000-0  44929-3 0  9992", "tle2": "2 56747  97.5065  11.3311 0003773  27.6084 332.5366 15.47771142169474", "object_type": "PAYLOAD", "criticality_score": 7.0, "last_updated": "2026-06-11T13:46:34.097683+00:00", "maneuver_count": 0}, "812": {"norad_id": "56866", "name": "OBJECT W", "tle1": "1 56866U 23081W   26162.23595799  .00006010  00000-0  24380-3 0  9998", "tle2": "2 56866  97.2903 225.9215 0011324  41.1005 319.1085 15.24922873167128", "object_type": "PAYLOAD", "criticality_score": 7.0, "last_updated": "2026-06-11T13:46:34.097683+00:00", "maneuver_count": 0}}}